SPACEBEE-4              
1 43139U 18004AE  22244.01803945  .00044249  00000+0  76397-3 0  9994
2 43139  97.3803 329.7490 0004272  86.7814 273.3927 15.50870375258521
SPACEBEE-3              
1 43140U 18004AF  22244.22086951  .00194574  00000+0  14552-2 0  9990
2 43140  97.3807 335.4233 0002312 227.6082 132.4986 15.72099721258894
SPACEBEE-2              
1 43141U 18004AG  22244.20951047  .00904262  38414-3  19591-2 0  9991
2 43141  97.3745 338.1594 0010646 266.8771  93.1289 15.98332212259056
SPACEBEE-7              
1 43816U 18099BL  22244.15946825  .00001244  00000+0  11001-3 0  9999
2 43816  97.6216 310.5828 0013028   7.0968 353.0437 14.98021078203983
SPACEBEE-5              
1 43817U 18099BM  22243.62845739  .00005326  00000+0  40912-3 0  9991
2 43817  97.6250 313.4590 0005809  10.8910 349.2439 15.02151583204056
SPACEBEE-6              
1 43818U 18099BN  22243.65970883  .00002903  00000+0  24285-3 0  9997
2 43818  97.6236 311.1251 0011225   7.0861 353.0519 14.99198070204107
SPACEBEE-21             
1 46300U 20061AE  22243.63396019  .00012136  00000+0  54892-3 0  9995
2 46300  97.4454 314.8101 0000618 146.0543 214.0732 15.21065044109955
SPACEBEE-20             
1 46301U 20061AF  22243.63379852  .00012033  00000+0  54496-3 0  9998
2 46301  97.4476 314.9108 0000477 153.9308 206.1951 15.21022285109952
SPACEBEE-15             
1 46302U 20061AG  22243.14668040  .00016044  00000+0  69853-3 0  9994
2 46302  97.4460 314.7070 0000882 154.7408 205.3872 15.22304880109905
SPACEBEE-19             
1 46303U 20061AH  22244.15762020  .00013454  00000+0  59880-3 0  9991
2 46303  97.4450 315.5137 0000679 153.0213 207.1064 15.21592176110044
SPACEBEE-18             
1 46304U 20061AJ  22244.43247727  .00013300  00000+0  59339-3 0  9994
2 46304  97.4454 315.7436 0000818 151.7169 208.4111 15.21511973110080
SPACEBEE-10             
1 46305U 20061AK  22244.12266238  .00019221  00000+0  78094-3 0  9996
2 46305  97.4493 316.3687 0000814 178.7842 181.3382 15.24608781110099
SPACEBEE-17             
1 46306U 20061AL  22244.15370272  .00015164  00000+0  66365-3 0  9994
2 46306  97.4460 315.6774 0000823 158.1491 201.9780 15.22139933110092
SPACEBEE-11             
1 46307U 20061AM  22243.17946392  .00017758  00000+0  74298-3 0  9993
2 46307  97.4465 315.1601 0000916 155.8138 204.3142 15.23634248109937
SPACEBEE-16             
1 46308U 20061AN  22244.13816155  .00013571  00000+0  59275-3 0  9991
2 46308  97.4462 315.7138 0000855 155.7140 204.4137 15.22232887110052
SPACEBEE-12             
1 46309U 20061AP  22244.15114370  .00017008  00000+0  72053-3 0  9992
2 46309  97.4459 315.9930 0000906 159.0406 201.0868 15.23221601110079
SPACEBEE-13             
1 46310U 20061AQ  22244.13069549  .00014119  00000+0  60552-3 0  9990
2 46310  97.4460 315.8652 0000906 149.2133 210.9157 15.22846859110102
SPACEBEE-14             
1 46311U 20061AR  22243.62482812  .00014786  00000+0  63764-3 0  9994
2 46311  97.4463 315.3243 0000892 153.2772 206.8511 15.22649039110014
SPACEBEE-34             
1 46933U 20085E   22244.22922283  .00142562  00000+0  16842-2 0  9996
2 46933  97.4287  27.7141 0007263 192.1742 167.9341 15.60808608 99416
SPACEBEE-35             
1 46934U 20085F   22244.34778816  .00105520  00000+0  14807-2 0  9993
2 46934  97.4295  27.3050 0007731 184.6190 175.5004 15.56343253 99397
SPACEBEE-36             
1 46935U 20085G   22244.37588398  .00090417  00000+0  13406-2 0  9993
2 46935  97.4345  27.2591 0007491 184.9182 175.2001 15.54897991 99384
SPACEBEE-37             
1 46936U 20085H   22243.93552305  .00064141  00000+0  11379-2 0  9996
2 46936  97.4421  26.1128 0008961 178.4951 181.6324 15.49974965 99266
SPACEBEE-38             
1 46937U 20085J   22244.36015183  .00061766  00000+0  11089-2 0  9991
2 46937  97.4362  26.2694 0009115 173.8381 186.3004 15.49646225 99327
SPACEBEENZ-3            
1 46938U 20085K   22243.84243429  .00019301  00000+0  55801-3 0  9999
2 46938  97.4423  22.9692 0012766 164.9382 195.2264 15.35592305 99045
SPACEBEENZ-4            
1 46939U 20085L   22244.37434346  .00019666  00000+0  58025-3 0  9994
2 46939  97.4443  23.3374 0011492 169.2554 190.8938 15.34964041 99110
SPACEBEENZ-5            
1 46941U 20085N   22243.90272594  .00017459  00000+0  52228-3 0  9997
2 46941  97.4448  22.7555 0012191 167.2724 192.8831 15.34545944 99038
SPACEBEENZ-6            
1 46942U 20085P   22244.34004993  .00018026  00000+0  54583-3 0  9990
2 46942  97.4461  23.1328 0012953 168.3139 191.8408 15.34145625 99092
SPACEBEE-33             
1 46944U 20085R   22244.37188895  .00046461  00000+0  98254-3 0  9996
2 46944  97.4382  24.8012 0009901 176.3693 183.7649 15.44958638 99237
SPACEBEE-29             
1 46945U 20085S   22244.34031470  .00058294  00000+0  11097-2 0  9996
2 46945  97.4339  25.3020 0009840 182.5374 177.5831 15.47972948 99262
SPACEBEE-32             
1 46946U 20085T   22244.38425681  .00051372  00000+0  10612-2 0  9994
2 46946  97.4353  24.9392 0009935 176.1926 183.9405 15.45624923 99244
SPACEBEE-31             
1 46947U 20085U   22243.94467099  .00051912  00000+0  10466-2 0  9992
2 46947  97.4343  24.6065 0009527 186.7191 173.3934 15.46337134 99185
SPACEBEE-28             
1 46948U 20085V   22244.35832111  .00061008  00000+0  11339-2 0  9997
2 46948  97.4327  25.4298 0008958 184.6314 175.4855 15.48659275 99276
SPACEBEE-30             
1 46949U 20085W   22244.33667100  .00055511  00000+0  10863-2 0  9993
2 46949  97.4324  25.1448 0009519 187.2854 172.8271 15.47189893 99254
SPACEBEE-27             
1 46950U 20085X   22244.51638305  .00081813  00000+0  13471-2 0  9992
2 46950  97.4323  26.0854 0009366 187.2410 172.8709 15.52007149 99338
SPACEBEE-25             
1 46951U 20085Y   22244.39675666  .00096702  00000+0  14498-2 0  9993
2 46951  97.4306  26.4333 0008774 198.6277 161.4667 15.54559608 99347
SPACEBEE-24             
1 46952U 20085Z   22244.18143226  .00063451  00000+0  11545-2 0  9998
2 46952  97.4332  25.3326 0009771 184.2700 175.8545 15.49249336 99259
SPACEBEE-22             
1 46953U 20085AA  22243.94601118  .00102487  00000+0  14752-2 0  9997
2 46953  97.4264  26.0595 0007749 196.5260 163.5735 15.55661812 99282
SPACEBEE-26             
1 46956U 20085AD  22243.89150465  .00069411  00000+0  12351-2 0  9990
2 46956  97.4315  25.1093 0009094 187.3694 172.7424 15.49867941 99134
SPACEBEENZ-2            
1 46957U 20085AE  22244.16303275  .00024203  00000+0  68399-3 0  9995
2 46957  97.4458  23.4564 0012108 169.6450 190.5045 15.36267613 99065
SPACEBEE-39             
1 46958U 20085AF  22244.38271535  .00059494  00000+0  11334-2 0  9999
2 46958  97.4321  25.9032 0008667 171.3623 188.7780 15.47956429 98605
SPACEBEENZ-1            
1 46959U 20085AG  22244.33236931  .00024324  00000+0  67047-3 0  9993
2 46959  97.4452  23.8477 0011553 170.0814 190.0666 15.37051412 98625
SPACEBEE-23             
1 46960U 20085AH  22243.91711320  .00086844  00000+0  13316-2 0  9992
2 46960  97.4315  25.7998 0008527 192.2233 167.8815 15.53978454 98385
SPACEBEE-52             
1 47425U 21006N   22244.14271827  .00021503  00000+0  75946-3 0  9991
2 47425  97.4380 305.9537 0008876  11.1227 349.0208 15.29195134 89003
SPACEBEE-46             
1 47426U 21006P   22244.16185108  .00018005  00000+0  69205-3 0  9994
2 47426  97.4374 305.2718 0009983  13.3785 346.7716 15.26433140 88965
SPACEBEE-47             
1 47427U 21006Q   22244.14908728  .00014869  00000+0  57956-3 0  9998
2 47427  97.4374 305.1324 0010118  14.8986 345.2548 15.26008011 88950
SPACEBEE-59             
1 47428U 21006R   22243.47810178  .00015516  00000+0  61236-3 0  9991
2 47428  97.4377 304.3555 0010272  19.1648 340.9974 15.25580812 89808
SPACEBEE-62             
1 47429U 21006S   22244.13855530  .00004993  00000+0  24305-3 0  9990
2 47429  97.4332 302.9328 0012834  17.3999 342.7672 15.18759803 88823
SPACEBEE-61             
1 47431U 21006U   22244.11552561  .00012426  00000+0  55688-3 0  9997
2 47431  97.4411 302.7470 0005051  39.1219 321.0382 15.21363503 88774
SPACEBEE-49             
1 47432U 21006V   22244.16005675  .00012628  00000+0  56952-3 0  9991
2 47432  97.4420 302.7225 0005002  40.0672 320.0932 15.21144525 88774
SPACEBEE-60             
1 47433U 21006W   22244.14729891  .00012646  00000+0  56636-3 0  9992
2 47433  97.4421 302.7576 0004703  42.8310 317.3292 15.21384768 88774
SPACEBEE-53             
1 47434U 21006X   22244.12458198  .00015666  00000+0  65816-3 0  9995
2 47434  97.4433 303.3053 0004193  41.2351 318.9202 15.23515511 88802
SPACEBEE-63             
1 47442U 21006AF  22243.59145738  .00004640  00000+0  24649-3 0  9996
2 47442  97.4372 300.4911 0006682  43.8060 316.3702 15.15773701 88595
SPACEBEE-50             
1 47443U 21006AG  22243.39231192  .00013217  00000+0  59442-3 0  9994
2 47443  97.4411 302.0235 0005253  41.4280 318.7353 15.21227219 88669
SPACEBEE-51             
1 47444U 21006AH  22243.61424581  .00017830  00000+0  73272-3 0  9998
2 47444  97.4343 302.3841 0004606  44.9682 315.1928 15.24231076 88742
SPACEBEE-48             
1 47447U 21006AL  22243.61908935  .00019277  00000+0  73865-3 0  9996
2 47447  97.4324 303.6385 0007599  21.8188 338.3373 15.26541218 88835
SPACEBEE-40             
1 47449U 21006AN  22244.11004201  .00016154  00000+0  64863-3 0  9996
2 47449  97.4324 303.7492 0008180  19.9853 340.1704 15.25013197 88884
SPACEBEE-41             
1 47451U 21006AQ  22244.12653592  .00017221  00000+0  69315-3 0  9996
2 47451  97.4334 303.7686 0008066  20.5952 339.5609 15.24918325 88886
SPACEBEE-42             
1 47455U 21006AU  22244.16544049  .00017158  00000+0  69580-3 0  9993
2 47455  97.4338 303.7428 0008025  21.3337 338.8234 15.24667744 88881
SPACEBEE-55             
1 47459U 21006AY  22243.87386393  .00004593  00000+0  23320-3 0  9991
2 47459  97.4291 301.3224 0011550  31.5096 328.6827 15.17340897 88719
SPACEBEE-54             
1 47460U 21006AZ  22244.10852529  .00015658  00000+0  63600-3 0  9998
2 47460  97.4342 303.6984 0007992  21.8030 338.3546 15.24633740 88874
